# Made by eph2tle, compiled Feb 20 2023 22:13:04
# Run at Wed Mar  1 20:24:29 2023
#
#    The following TLEs (Two-Line Elements) were generated by fitting
# a numerically-integrated ephemeris,  based on the orbit given below,
# to the SDP4/SGP4 models.  Each TLE is good for the interval between
# its epoch and the epoch of the subsequent TLE (usually one day).
# The maximum deviation between the numerically integrated ephemerides
# and the TLE-based ephemeris, in kilometers,  is given for each TLE
# as the "worst residual".
#
#    This fitting is done using the 'eph2tle' code packaged with Find_Orb.
# The code has details on how the TLEs were computed :
#
#    https://github.com/Bill-Gray/find_orb/eph2tle.cpp
#
#    Be warned:  the error given is that between the numerically
# integrated ephems and the TLE model.  There will usually be at
# least some additional difference between the ephems and the actual
# motion of the satellite,  especially if the ephemerides are based
# on a short arc.  If the following orbital elements say something
# like "[based on] 10 observations 2015 Jan. 1-13",  and the TLEs
# are for 2015 May,  the extrapolation may be tenuous at best.  If
# your application requires a specific level of accuracy,  you may
# want to contact me;  I can give you some idea as to the fit of the
# underlying data (and possibly TLEs based on newer data).
#
#   You can usually find the underlying observational data,  and the
# fitted orbit,  residuals,  ephemerides,  and sometimes some comments
# about the object,  among the pages listed at
#
#    https://www.projectpluto.com/pluto/mpecs/pseudo.htm
#
#    WARNING:  for this object,  "normal" TLEs cannot be fitted.  (This
# usually means an object with an hyperbolic or nearly-parabolic orbit.)
# For this and similar cases,   an alternative model is used,  in which
# most of the traditional TLE data is replaced by six signed 8-digit hex
# numbers.  These six numbers are a state vector,  numerically integrated
# using a simplified force model.  This is necessary for objects at L2 or
# L1,  and sometimes for objects in high orbits where the SDP4/SGP4 model
# fails.  Some documentation is in 'get_el.cpp' in the source code at
# https://www.github.com/Bill-Gray/sat_code ; look for 'hex' in that file,
# with the actual integration done in 'sdp4.cpp'.  But be aware:  it's my
# own extension,  doesn't work with other code,  and is therefore used
# only when necessary.
#
#    Also,  if you use a TLE outside the "correct" time range (between
# its MJD and that of the next TLE),  all bets are off.  I've carefully
# computed and minimized the worst error over the "correct" time frame,
# but the ephemeris may (or may not) diverge wildly outside of it.
#
# Ephem range: 59946.000000 60024.000000 1.000000
# Created Wed Mar  1 20:24:24 2023
# Ephemeris start:  2 Jan 2023  0:00:00
# Ephemeris end:   21 Mar 2023  0:00:00
# Times are all TDT
# Positions/velocities are in equatorial J2000
# Orbital elements:  Hakuto-R = 2022-168A = NORAD 54696
#    Perigee 2023 Mar 13.718045 +/- 0.0572 TT = 17:13:59.0 (JD 2460017.218045)
# Epoch 2023 Mar  2.0 TT = JDT 2460005.5                           Find_Orb
# M 312.942539732 +/- 0.6             (J2000 equator)
# n   4.015811637 +/- 0.0335          Peri.  246.233843 +/- 0.19
# a846099.1983 +/- 4708               Node    15.560178 +/- 0.0015
# e   0.42818007 +/- 0.00438          Incl.   25.922062 +/- 0.0011
# P  89.64d                  H 30.09  G  0.15   U 10.5
# q 483816.3781 +/- 1192    Q 0.008077534 +/- 6.94e-5
# From 20 observations 2023 Mar. 1 (16.4 hr); mean residual 0".235
#
# 1 NoradU COSPAR   Epoch.epoch     dn/dt/2  d2n/dt2/6 BSTAR    T El# C
# 2 NoradU Inclina RAAscNode Eccent  ArgPeri MeanAno  MeanMotion Rev# C

# Worst residual: 0.63 km
# MJD 59946.000000 (2023 Jan  2  0:00)
Hakuto-R = 2022-168A = NORAD 54696
1 54696U 22168A   23001.99919926 +0046IH9L +00JFUNSV +006OTI3SH 18872
2 54696                          -0000EA7X +00014CWL +0000OPD0     05

# Worst residual: 0.55 km
# MJD 59947.000000 (2023 Jan  3  0:00)
Hakuto-R = 2022-168A = NORAD 54696
1 54696U 22168A   23002.99919926 +0042UFST +00JP5HRM +006UMWB3H 18875
2 54696                          -0000G9BH +000115L1 +0000NRGT     00

# Worst residual: 0.50 km
# MJD 59948.000000 (2023 Jan  4  0:00)
Hakuto-R = 2022-168A = NORAD 54696
1 54696U 22168A   23003.99919926 +003YPT3F +00JXOUA8 +00708323H 18873
2 54696                          -0000I4G5 +0000XZXI +0000MT0F     02

# Worst residual: 0.52 km
# MJD 59949.000000 (2023 Jan  5  0:00)
Hakuto-R = 2022-168A = NORAD 54696
1 54696U 22168A   23004.99919926 +003U5JUJ +00K5H5K4 +0075KYNDH 18871
2 54696                          -0000JVIY +0000UWDK +0000LU9H     02

# Worst residual: 0.60 km
# MJD 59950.000000 (2023 Jan  6  0:00)
Hakuto-R = 2022-168A = NORAD 54696
1 54696U 22168A   23005.99919926 +003P6N7X +00KCIZSU +007APHQNH 18871
2 54696                          -0000LIIW +0000RVEF +0000KVHX     03

# Worst residual: 0.69 km
# MJD 59951.000000 (2023 Jan  7  0:00)
Hakuto-R = 2022-168A = NORAD 54696
1 54696U 22168A   23006.99919926 +003JU2DY +00KIV17Z +007FLPCHH 18879
2 54696                          -0000N1H1 +0000OXFR +0000JWZB     05

# Worst residual: 0.78 km
# MJD 59952.000000 (2023 Jan  8  0:00)
Hakuto-R = 2022-168A = NORAD 54696
1 54696U 22168A   23007.99919926 +003E4RUL +00KOI1EP +007K9OO9H 18873
2 54696                          -0000OGI7 +0000M2TW +0000IYYA     02

# Worst residual: 0.85 km
# MJD 59953.000000 (2023 Jan  9  0:00)
Hakuto-R = 2022-168A = NORAD 54696
1 54696U 22168A   23008.99919926 +00383OEW +00KTGUH3 +007OPKVKH 18875
2 54696                          -0000PRVS +0000JBTP +0000I1MI     04

# Worst residual: 0.92 km
# MJD 59954.000000 (2023 Jan 10  0:00)
Hakuto-R = 2022-168A = NORAD 54696
1 54696U 22168A   23009.99919926 +0031RM2F +00KXSCC0 +007SXKTZH 18875
2 54696                          -0000QZZR +0000GOLF +0000H56N     04

# Worst residual: 1.02 km
# MJD 59955.000000 (2023 Jan 11  0:00)
Hakuto-R = 2022-168A = NORAD 54696
1 54696U 22168A   23010.99919926 +002V5AYI +00L1HG5J +007WXWXAH 18874
2 54696                          -0000S5C1 +0000E59D +0000G9SK     02

# Worst residual: 1.15 km
# MJD 59956.000000 (2023 Jan 12  0:00)
Hakuto-R = 2022-168A = NORAD 54696
1 54696U 22168A   23011.99919926 +002O9CK0 +00L4L3Z4 +0080QUU8H 18873
2 54696                          -0000T8HL +0000BPWI +0000FFLA     01

# Worst residual: 1.32 km
# MJD 59957.000000 (2023 Jan 13  0:00)
Hakuto-R = 2022-168A = NORAD 54696
1 54696U 22168A   23012.99919926 +002H46XR +00L74ADR +0084CPDTH 18871
2 54696                          -0000UA4C +00009EKG +0000EMP4     00

# Worst residual: 1.47 km
# MJD 59958.000000 (2023 Jan 14  0:00)
Hakuto-R = 2022-168A = NORAD 54696
1 54696U 22168A   23013.99919926 +0029Q43G +00L93Y67 +0087RSA3H 18878
2 54696                          -0000VAZ6 +0000779A +0000DV7E     09

# Worst residual: 1.52 km
# MJD 59959.000000 (2023 Jan 15  0:00)
Hakuto-R = 2022-168A = NORAD 54696
1 54696U 22168A   23014.99919926 +0022375N +00LAL1X3 +008B0FXIH 18879
2 54696                          -0000WBWJ +000053WV +0000D56B     02

# Worst residual: 1.38 km
# MJD 59960.000000 (2023 Jan 16  0:00)
Hakuto-R = 2022-168A = NORAD 54696
1 54696U 22168A   23015.99919926 +001U7BG1 +00LBKJ9N +008E311YH 18870
2 54696                          -0000XDV3 +000034DA +0000CGM7     00

# Worst residual: 1.06 km
# MJD 59961.000000 (2023 Jan 17  0:00)
Hakuto-R = 2022-168A = NORAD 54696
1 54696U 22168A   23016.99919926 +001M23G7 +00LC39RL +008GZW3QH 18876
2 54696                          -0000YHXP +000018AH +0000BTG9     01

# Worst residual: 0.65 km
# MJD 59962.000000 (2023 Jan 18  0:00)
Hakuto-R = 2022-168A = NORAD 54696
1 54696U 22168A   23017.99919926 +001DMVX7 +00LC610G +008JRCBFH 18874
2 54696                          -0000ZPA9 -00000KWZ +0000B7GT     00

# Worst residual: 0.36 km
# MJD 59963.000000 (2023 Jan 19  0:00)
Hakuto-R = 2022-168A = NORAD 54696
1 54696U 22168A   23018.99919926 +0014WRK8 +00LBTDZN +008MDMBVH 18873
2 54696                          -0001111R -00002C79 +0000AM9J     05

# Worst residual: 0.34 km
# MJD 59964.000000 (2023 Jan 20  0:00)
Hakuto-R = 2022-168A = NORAD 54696
1 54696U 22168A   23019.99919926 +000VUJYJ +00LB1NQL +008OUUCXH 18872
2 54696                          -00012I5R -000042X6 +0000A17V     02

# Worst residual: 0.53 km
# MJD 59965.000000 (2023 Jan 21  0:00)
Hakuto-R = 2022-168A = NORAD 54696
1 54696U 22168A   23020.99919926 +000MEWG4 +00L9URY1 +008R6Y8NH 18871
2 54696                          -0001453D -00005USH +00009FHE     01

# Worst residual: 0.78 km
# MJD 59966.000000 (2023 Jan 22  0:00)
Hakuto-R = 2022-168A = NORAD 54696
1 54696U 22168A   23021.99919926 +000CKF1E +00L888IG +008TDNU8H 18877
2 54696                          -00015XNE -00007PPI +00008S2T     07

# Worst residual: 0.84 km
# MJD 59967.000000 (2023 Jan 23  0:00)
Hakuto-R = 2022-168A = NORAD 54696
1 54696U 22168A   23022.99919926 +00029USM +00L65374 +008VEGGFH 18871
2 54696                          -00017UV0 -00009PGK +00008212     04

# Worst residual: 0.65 km
# MJD 59968.000000 (2023 Jan 24  0:00)
Hakuto-R = 2022-168A = NORAD 54696
1 54696U 22168A   23023.99919926 -0008HPWR +00L3JZWA +008X8LLSH 18876
2 54696                          -00019V43 -0000BVF9 +000078J8     03

# Worst residual: 0.36 km
# MJD 59969.000000 (2023 Jan 25  0:00)
Hakuto-R = 2022-168A = NORAD 54696
1 54696U 22168A   23024.99919926 -000JQSY3 +00L0FD2F +008YV711H 18872
2 54696                          -0001BWFH -0000E8E2 +00006B2K     03

# Worst residual: 0.29 km
# MJD 59970.000000 (2023 Jan 26  0:00)
Hakuto-R = 2022-168A = NORAD 54696
1 54696U 22168A   23025.99919926 -000VHEQT +00KWPGZ4 +009099B8H 18870
2 54696                          -0001DWSW -0000GSJY +000059FC     09

